STARLINK-1121
1 24929C 20001R   21325.07534038  .00008348  00000-0  55925-3 0  3259
2 24929  53.0518 192.8898 0001936  77.9504  32.1467 15.06395962    18
